{
  "type": "FeatureCollection",
  "features": [
    {
      "type": "Feature",
      "properties": {
        "norad_id": 34497,
        "name": "IRIDIUM 33 DEB",
        "group": "iridium-33-debris",
        "lat": 23.65880224210663,
        "lon": 47.57887737866274,
        "alt_km": 802.6584734519765,
        "timestamp": "2025-12-27T20:30:59.665499+00:00",
        "meta_object_name": "IRIDIUM 33 DEB",
        "meta_object_id": "1997-051GN",
        "meta_epoch": "2025-12-22T21:33:03.136608",
        "meta_mean_motion": 14.27482363,
        "meta_eccentricity": 0.00780484,
        "meta_inclination": 86.2769,
        "meta_ra_of_asc_node": 48.0617,
        "meta_arg_of_pericenter": 306.2683,
        "meta_mean_anomaly": 179.2919,
        "meta_ephemeris_type": 0,
        "meta_classification_type": "U",
        "meta_norad_cat_id": 34497,
        "meta_element_set_no": 999,
        "meta_rev_at_epoch": 87028,
        "meta_bstar": 0.00056228088,
        "meta_mean_motion_dot": 1.443e-05,
        "meta_mean_motion_ddot": 0,
        "tle_line1": "1 34497U 97051GN  25356.89795297  .00001443  00000+0  56228-3 0  9993",
        "tle_line2": "2 34497  86.2769  48.0617 0078048 306.2683 179.2919 14.27482363870281"
      },
      "geometry": {
        "type": "Point",
        "coordinates": [
          47.57887737866274,
          23.65880224210663
        ]
      }
    },
    {
      "type": "Feature",
      "properties": {
        "norad_id": 34508,
        "name": "IRIDIUM 33 DEB",
        "group": "iridium-33-debris",
        "lat": 58.11687320982377,
        "lon": 102.09253017502215,
        "alt_km": 738.2528561277495,
        "timestamp": "2025-12-27T20:30:59.665509+00:00",
        "meta_object_name": "IRIDIUM 33 DEB",
        "meta_object_id": "1997-051GZ",
        "meta_epoch": "2025-12-27T06:53:26.818080",
        "meta_mean_motion": 14.38536882,
        "meta_eccentricity": 0.0066726,
        "meta_inclination": 86.3698,
        "meta_ra_of_asc_node": 96.4755,
        "meta_arg_of_pericenter": 126.3522,
        "meta_mean_anomaly": 234.386,
        "meta_ephemeris_type": 0,
        "meta_classification_type": "U",
        "meta_norad_cat_id": 34508,
        "meta_element_set_no": 999,
        "meta_rev_at_epoch": 87518,
        "meta_bstar": 0.0013019,
        "meta_mean_motion_dot": 4.103e-05,
        "meta_mean_motion_ddot": 0,
        "tle_line1": "1 34508U 97051GZ  25361.28711595  .00004103  00000+0  13019-2 0  9990",
        "tle_line2": "2 34508  86.3698  96.4755 0066726 126.3522 234.3860 14.38536882875189"
      },
      "geometry": {
        "type": "Point",
        "coordinates": [
          102.09253017502215,
          58.11687320982377
        ]
      }
    },
    {
      "type": "Feature",
      "properties": {
        "norad_id": 34521,
        "name": "IRIDIUM 33 DEB",
        "group": "iridium-33-debris",
        "lat": 27.685898812403778,
        "lon": -158.01219061370983,
        "alt_km": 678.4634512596476,
        "timestamp": "2025-12-27T20:30:59.665520+00:00",
        "meta_object_name": "IRIDIUM 33 DEB",
        "meta_object_id": "1997-051HN",
        "meta_epoch": "2025-12-27T11:37:07.441824",
        "meta_mean_motion": 14.63491887,
        "meta_eccentricity": 0.0003409,
        "meta_inclination": 86.3792,
        "meta_ra_of_asc_node": 24.055,
        "meta_arg_of_pericenter": 160.324,
        "meta_mean_anomaly": 199.8105,
        "meta_ephemeris_type": 0,
        "meta_classification_type": "U",
        "meta_norad_cat_id": 34521,
        "meta_element_set_no": 999,
        "meta_rev_at_epoch": 88688,
        "meta_bstar": 0.00097765,
        "meta_mean_motion_dot": 5.086e-05,
        "meta_mean_motion_ddot": 0,
        "tle_line1": "1 34521U 97051HN  25361.48411391  .00005086  00000+0  97765-3 0  9990",
        "tle_line2": "2 34521  86.3792  24.0550 0003409 160.3240 199.8105 14.63491887886882"
      },
      "geometry": {
        "type": "Point",
        "coordinates": [
          -158.01219061370983,
          27.685898812403778
        ]
      }
    },
    {
      "type": "Feature",
      "properties": {
        "norad_id": 34525,
        "name": "IRIDIUM 33 DEB",
        "group": "iridium-33-debris",
        "lat": -62.81363208662614,
        "lon": 33.29473535151875,
        "alt_km": 758.4034780929196,
        "timestamp": "2025-12-27T20:30:59.665530+00:00",
        "meta_object_name": "IRIDIUM 33 DEB",
        "meta_object_id": "1997-051HS",
        "meta_epoch": "2025-12-27T02:46:13.062144",
        "meta_mean_motion": 14.42939848,
        "meta_eccentricity": 0.00061196,
        "meta_inclination": 86.3716,
        "meta_ra_of_asc_node": 40.7068,
        "meta_arg_of_pericenter": 61.7573,
        "meta_mean_anomaly": 356.7447,
        "meta_ephemeris_type": 0,
        "meta_classification_type": "U",
        "meta_norad_cat_id": 34525,
        "meta_element_set_no": 999,
        "meta_rev_at_epoch": 88295,
        "meta_bstar": 0.00039403064,
        "meta_mean_motion_dot": 1.337e-05,
        "meta_mean_motion_ddot": 0,
        "tle_line1": "1 34525U 97051HS  25361.11542896  .00001337  00000+0  39403-3 0  9999",
        "tle_line2": "2 34525  86.3716  40.7068 0006119  61.7573 356.7447 14.42939848882953"
      },
      "geometry": {
        "type": "Point",
        "coordinates": [
          33.29473535151875,
          -62.81363208662614
        ]
      }
    },
    {
      "type": "Feature",
      "properties": {
        "norad_id": 34529,
        "name": "IRIDIUM 33 DEB",
        "group": "iridium-33-debris",
        "lat": 66.45598009896233,
        "lon": 37.36139319027462,
        "alt_km": 748.3269895531976,
        "timestamp": "2025-12-27T20:30:59.665540+00:00",
        "meta_object_name": "IRIDIUM 33 DEB",
        "meta_object_id": "1997-051HW",
        "meta_epoch": "2025-12-27T11:52:22.412640",
        "meta_mean_motion": 14.4062826,
        "meta_eccentricity": 0.0006367,
        "meta_inclination": 86.3627,
        "meta_ra_of_asc_node": 29.1206,
        "meta_arg_of_pericenter": 135.9273,
        "meta_mean_anomaly": 224.2435,
        "meta_ephemeris_type": 0,
        "meta_classification_type": "U",
        "meta_norad_cat_id": 34529,
        "meta_element_set_no": 999,
        "meta_rev_at_epoch": 88354,
        "meta_bstar": 0.00014818,
        "meta_mean_motion_dot": 4.92e-06,
        "meta_mean_motion_ddot": 0,
        "tle_line1": "1 34529U 97051HW  25361.49470385  .00000492  00000+0  14818-3 0  9991",
        "tle_line2": "2 34529  86.3627  29.1206 0006367 135.9273 224.2435 14.40628260883542"
      },
      "geometry": {
        "type": "Point",
        "coordinates": [
          37.36139319027462,
          66.45598009896233
        ]
      }
    },
    {
      "type": "Feature",
      "properties": {
        "norad_id": 34538,
        "name": "IRIDIUM 33 DEB",
        "group": "iridium-33-debris",
        "lat": 16.632894854340105,
        "lon": 0.048676669373300466,
        "alt_km": 754.5034086266451,
        "timestamp": "2025-12-27T20:30:59.665550+00:00",
        "meta_object_name": "IRIDIUM 33 DEB",
        "meta_object_id": "1997-051JF",
        "meta_epoch": "2025-12-27T11:09:27.620064",
        "meta_mean_motion": 14.42736506,
        "meta_eccentricity": 0.0031822,
        "meta_inclination": 86.2768,
        "meta_ra_of_asc_node": 359.1048,
        "meta_arg_of_pericenter": 276.7723,
        "meta_mean_anomaly": 235.5728,
        "meta_ephemeris_type": 0,
        "meta_classification_type": "U",
        "meta_norad_cat_id": 34538,
        "meta_element_set_no": 999,
        "meta_rev_at_epoch": 87968,
        "meta_bstar": 0.001075,
        "meta_mean_motion_dot": 3.619e-05,
        "meta_mean_motion_ddot": 0,
        "tle_line1": "1 34538U 97051JF  25361.46490301  .00003619  00000+0  10750-2 0  9992",
        "tle_line2": "2 34538  86.2768 359.1048 0031822 276.7723 235.5728 14.42736506879680"
      },
      "geometry": {
        "type": "Point",
        "coordinates": [
          0.048676669373300466,
          16.632894854340105
        ]
      }
    },
    {
      "type": "Feature",
      "properties": {
        "norad_id": 34540,
        "name": "IRIDIUM 33 DEB",
        "group": "iridium-33-debris",
        "lat": 55.236133766675266,
        "lon": -53.97027130926858,
        "alt_km": 630.270358693906,
        "timestamp": "2025-12-27T20:30:59.665560+00:00",
        "meta_object_name": "IRIDIUM 33 DEB",
        "meta_object_id": "1997-051JH",
        "meta_epoch": "2025-12-27T02:26:44.045952",
        "meta_mean_motion": 14.75620073,
        "meta_eccentricity": 0.00185605,
        "meta_inclination": 86.3108,
        "meta_ra_of_asc_node": 301.0402,
        "meta_arg_of_pericenter": 111.9699,
        "meta_mean_anomaly": 266.3781,
        "meta_ephemeris_type": 0,
        "meta_classification_type": "U",
        "meta_norad_cat_id": 34540,
        "meta_element_set_no": 999,
        "meta_rev_at_epoch": 89233,
        "meta_bstar": 0.0019662624,
        "meta_mean_motion_dot": 0.00013489,
        "meta_mean_motion_ddot": 0,
        "tle_line1": "1 34540U 97051JH  25361.10189868  .00013489  00000+0  19663-2 0  9997",
        "tle_line2": "2 34540  86.3108 301.0402 0018560 111.9699 266.3781 14.75620073892333"
      },
      "geometry": {
        "type": "Point",
        "coordinates": [
          -53.97027130926858,
          55.236133766675266
        ]
      }
    }
  ]
}